{"type": "FeatureCollection", "features": [ {"type": "Feature", "properties": {"norad_id": 66747, "name": "W-SERIES 5", "group": "last-30-days", "lat": 39.45018004577096, "lon": 63.872737072393335, "alt_km": 511.10740553142296, "timestamp": "2025-12-24T11:32:58.718584+00:00", "meta": {"OBJECT_NAME": "W-SERIES 5", "OBJECT_ID": "2025-276CK", "EPOCH": "2025-12-24T04:00:01.998720", "MEAN_MOTION": 15.17539427, "ECCENTRICITY": 0.0001353, "INCLINATION": 97.441, "RA_OF_ASC_NODE": 69.7376, "ARG_OF_PERICENTER": 199.0831, "MEAN_ANOMALY": 283.5363, "EPHEMERIS_TYPE": 0, "CLASSIFICATION_TYPE": "U", "NORAD_CAT_ID": 66747, "ELEMENT_SET_NO": 999, "REV_AT_EPOCH": 130, "BSTAR": 0.0021788, "MEAN_MOTION_DOT": 0.00043882, "MEAN_MOTION_DDOT": 0}, "tle": {"line1": "1 66747U 25276CK  25358.16668980  .00043882  00000+0  21788-2 0  9991", "line2": "2 66747  97.4410  69.7376 0001353 199.0831 283.5363 15.17539427  1306"}}, "geometry": {"type": "Point", "coordinates": [63.872737072393335, 39.45018004577096]}}, {"type": "Feature", "properties": {"norad_id": 66748, "name": "TRANSPORTER-15CL", "group": "last-30-days", "lat": 82.54516724288585, "lon": -17.148818890547574, "alt_km": 505.1548462859937, "timestamp": "2025-12-24T11:32:58.718593+00:00", "meta": {"OBJECT_NAME": "TRANSPORTER-15CL", "OBJECT_ID": "2025-276CL", "EPOCH": "2025-12-24T03:14:36.739680", "MEAN_MOTION": 15.17656567, "ECCENTRICITY": 0.0002907, "INCLINATION": 97.441, "RA_OF_ASC_NODE": 69.7253, "ARG_OF_PERICENTER": 152.6572, "MEAN_ANOMALY": 207.4815, "EPHEMERIS_TYPE": 0, "CLASSIFICATION_TYPE": "U", "NORAD_CAT_ID": 66748, "ELEMENT_SET_NO": 999, "REV_AT_EPOCH": 385, "BSTAR": -0.016005, "MEAN_MOTION_DOT": -0.00308863, "MEAN_MOTION_DDOT": 0}, "tle": {"line1": "1 66748U 25276CL  25358.13514745 -.00308863  00000+0 -16005-1 0  9998", "line2": "2 66748  97.4410  69.7253 0002907 152.6572 207.4815 15.17656567  3858"}}, "geometry": {"type": "Point", "coordinates": [-17.148818890547574, 82.54516724288585]}}, {"type": "Feature", "properties": {"norad_id": 66749, "name": "TRANSPORTER-15CM", "group": "last-30-days", "lat": 63.62864955523287, "lon": 54.76889451429723, "alt_km": 506.6305631909381, "timestamp": "2025-12-24T11:32:58.718604+00:00", "meta": {"OBJECT_NAME": "TRANSPORTER-15CM", "OBJECT_ID": "2025-276CM", "EPOCH": "2025-12-24T03:21:18.489312", "MEAN_MOTION": 15.17893694, "ECCENTRICITY": 0.0001965, "INCLINATION": 97.4399, "RA_OF_ASC_NODE": 69.7157, "ARG_OF_PERICENTER": 183.202, "MEAN_ANOMALY": 176.9201, "EPHEMERIS_TYPE": 0, "CLASSIFICATION_TYPE": "U", "NORAD_CAT_ID": 66749, "ELEMENT_SET_NO": 999, "REV_AT_EPOCH": 385, "BSTAR": 0.0005385, "MEAN_MOTION_DOT": 0.00010857, "MEAN_MOTION_DDOT": 0}, "tle": {"line1": "1 66749U 25276CM  25358.13979733  .00010857  00000+0  53850-3 0  9993", "line2": "2 66749  97.4399  69.7157 0001965 183.2020 176.9201 15.17893694  3852"}}, "geometry": {"type": "Point", "coordinates": [54.76889451429723, 63.62864955523287]}}, {"type": "Feature", "properties": {"norad_id": 66750, "name": "TRANSPORTER-15CN", "group": "last-30-days", "lat": 79.44906098974153, "lon": 25.490270093493347, "alt_km": 503.6955541742482, "timestamp": "2025-12-24T11:32:58.718613+00:00", "meta": {"OBJECT_NAME": "TRANSPORTER-15CN", "OBJECT_ID": "2025-276CN", "EPOCH": "2025-12-24T03:16:39.374112", "MEAN_MOTION": 15.18047669, "ECCENTRICITY": 0.0002216, "INCLINATION": 97.4438, "RA_OF_ASC_NODE": 69.7355, "ARG_OF_PERICENTER": 147.5827, "MEAN_ANOMALY": 212.5543, "EPHEMERIS_TYPE": 0, "CLASSIFICATION_TYPE": "U", "NORAD_CAT_ID": 66750, "ELEMENT_SET_NO": 999, "REV_AT_EPOCH": 385, "BSTAR": 0.00049195, "MEAN_MOTION_DOT": 9.956e-05, "MEAN_MOTION_DDOT": 0}, "tle": {"line1": "1 66750U 25276CN  25358.13656683  .00009956  00000+0  49195-3 0  9996", "line2": "2 66750  97.4438  69.7355 0002216 147.5827 212.5543 15.18047669  3856"}}, "geometry": {"type": "Point", "coordinates": [25.490270093493347, 79.44906098974153]}}, {"type": "Feature", "properties": {"norad_id": 66751, "name": "ICEYE-X58", "group": "last-30-days", "lat": 61.417278704839156, "lon": 56.178555085795345, "alt_km": 507.72188818321865, "timestamp": "2025-12-24T11:32:58.718623+00:00", "meta": {"OBJECT_NAME": "ICEYE-X58", "OBJECT_ID": "2025-276CP", "EPOCH": "2025-12-24T03:21:53.152128", "MEAN_MOTION": 15.17812851, "ECCENTRICITY": 0.0002449, "INCLINATION": 97.4412, "RA_OF_ASC_NODE": 69.7235, "ARG_OF_PERICENTER": 200.0783, "MEAN_ANOMALY": 160.0354, "EPHEMERIS_TYPE": 0, "CLASSIFICATION_TYPE": "U", "NORAD_CAT_ID": 66751, "ELEMENT_SET_NO": 999, "REV_AT_EPOCH": 385, "BSTAR": 0.00028385, "MEAN_MOTION_DOT": 5.674e-05, "MEAN_MOTION_DDOT": 0}, "tle": {"line1": "1 66751U 25276CP  25358.14019852  .00005674  00000+0  28385-3 0  9990", "line2": "2 66751  97.4412  69.7235 0002449 200.0783 160.0354 15.17812851  3859"}}, "geometry": {"type": "Point", "coordinates": [56.178555085795345, 61.417278704839156]}}, {"type": "Feature", "properties": {"norad_id": 66752, "name": "ICEYE-X59", "group": "last-30-days", "lat": 44.086968917142265, "lon": 62.77852952102947, "alt_km": 510.6812526974827, "timestamp": "2025-12-24T11:32:58.718637+00:00", "meta": {"OBJECT_NAME": "ICEYE-X59", "OBJECT_ID": "2025-276CQ", "EPOCH": "2025-12-24T03:26:30.266304", "MEAN_MOTION": 15.17618839, "ECCENTRICITY": 0.0001924, "INCLINATION": 97.4405, "RA_OF_ASC_NODE": 69.719, "ARG_OF_PERICENTER": 229.6458, "MEAN_ANOMALY": 130.4607, "EPHEMERIS_TYPE": 0, "CLASSIFICATION_TYPE": "U", "NORAD_CAT_ID": 66752, "ELEMENT_SET_NO": 999, "REV_AT_EPOCH": 385, "BSTAR": 0.00046868, "MEAN_MOTION_DOT": 9.365e-05, "MEAN_MOTION_DDOT": 0}, "tle": {"line1": "1 66752U 25276CQ  25358.14340586  .00009365  00000+0  46868-3 0  9999", "line2": "2 66752  97.4405  69.7190 0001924 229.6458 130.4607 15.17618839  3857"}}, "geometry": {"type": "Point", "coordinates": [62.77852952102947, 44.086968917142265]}}, {"type": "Feature", "properties": {"norad_id": 66753, "name": "ICEYE-X60", "group": "last-30-days", "lat": 19.82370845052066, "lon": 67.33637085631221, "alt_km": 516.3918293647284, "timestamp": "2025-12-24T11:32:58.718647+00:00", "meta": {"OBJECT_NAME": "ICEYE-X60", "OBJECT_ID": "2025-276CR", "EPOCH": "2025-12-22T16:43:05.853792", "MEAN_MOTION": 15.17180475, "ECCENTRICITY": 0.00011044, "INCLINATION": 97.441, "RA_OF_ASC_NODE": 68.2849, "ARG_OF_PERICENTER": 193.8242, "MEAN_ANOMALY": 166.2962, "EPHEMERIS_TYPE": 0, "CLASSIFICATION_TYPE": "U", "NORAD_CAT_ID": 66753, "ELEMENT_SET_NO": 999, "REV_AT_EPOCH": 363, "BSTAR": -0.0054396978, "MEAN_MOTION_DOT": -0.00106457, "MEAN_MOTION_DDOT": 0}, "tle": {"line1": "1 66753U 25276CR  25356.69659553 -.00106457  00000+0 -54397-2 0  9992", "line2": "2 66753  97.4410  68.2849 0001104 193.8242 166.2962 15.17180475  3639"}}, "geometry": {"type": "Point", "coordinates": [67.33637085631221, 19.82370845052066]}}, {"type": "Feature", "properties": {"norad_id": 66754, "name": "ICEYE-X61", "group": "last-30-days", "lat": 66.212659349337, "lon": 52.809116125127844, "alt_km": 506.63800800889476, "timestamp": "2025-12-24T11:32:58.718657+00:00", "meta": {"OBJECT_NAME": "ICEYE-X61", "OBJECT_ID": "2025-276CS", "EPOCH": "2025-12-24T03:20:34.884096", "MEAN_MOTION": 15.17860785, "ECCENTRICITY": 0.0002324, "INCLINATION": 97.4405, "RA_OF_ASC_NODE": 69.7196, "ARG_OF_PERICENTER": 187.7394, "MEAN_ANOMALY": 172.3805, "EPHEMERIS_TYPE": 0, "CLASSIFICATION_TYPE": "U", "NORAD_CAT_ID": 66754, "ELEMENT_SET_NO": 999, "REV_AT_EPOCH": 385, "BSTAR": 0.00046384, "MEAN_MOTION_DOT": 9.332e-05, "MEAN_MOTION_DDOT": 0}, "tle": {"line1": "1 66754U 25276CS  25358.13929264  .00009332  00000+0  46384-3 0  9993", "line2": "2 66754  97.4405  69.7196 0002324 187.7394 172.3805 15.17860785  3857"}}, "geometry": {"type": "Point", "coordinates": [52.809116125127844, 66.212659349337]}}, {"type": "Feature", "properties": {"norad_id": 66755, "name": "ICEYE-X62", "group": "last-30-days", "lat": 42.926346144838995, "lon": 63.060195253661604, "alt_km": 510.46118063244285, "timestamp": "2025-12-24T11:32:58.718675+00:00", "meta": {"OBJECT_NAME": "ICEYE-X62", "OBJECT_ID": "2025-276CT", "EPOCH": "2025-12-22T22:57:46.373472", "MEAN_MOTION": 15.17604649, "ECCENTRICITY": 0.00026826, "INCLINATION": 97.4395, "RA_OF_ASC_NODE": 68.5434, "ARG_OF_PERICENTER": 290.3052, "MEAN_ANOMALY": 69.7893, "EPHEMERIS_TYPE": 0, "CLASSIFICATION_TYPE": "U", "NORAD_CAT_ID": 66755, "ELEMENT_SET_NO": 999, "REV_AT_EPOCH": 367, "BSTAR": 7.2637995e-05, "MEAN_MOTION_DOT": 1.393e-05, "MEAN_MOTION_DDOT": 0}, "tle": {"line1": "1 66755U 25276CT  25356.95678673  .00001393  00000+0  72638-4 0  9998", "line2": "2 66755  97.4395  68.5434 0002682 290.3052  69.7893 15.17604649  3678"}}, "geometry": {"type": "Point", "coordinates": [63.060195253661604, 42.926346144838995]}}, {"type": "Feature", "properties": {"norad_id": 66756, "name": "TRANSPORTER-15CU", "group": "last-30-days", "lat": 72.16245414826071, "lon": 46.09770617505992, "alt_km": 504.8589060148497, "timestamp": "2025-12-24T11:32:58.718685+00:00", "meta": {"OBJECT_NAME": "TRANSPORTER-15CU", "OBJECT_ID": "2025-276CU", "EPOCH": "2025-12-24T03:18:55.904256", "MEAN_MOTION": 15.17956857, "ECCENTRICITY": 0.0001659, "INCLINATION": 97.4413, "RA_OF_ASC_NODE": 69.725, "ARG_OF_PERICENTER": 154.0488, "MEAN_ANOMALY": 206.0829, "EPHEMERIS_TYPE": 0, "CLASSIFICATION_TYPE": "U", "NORAD_CAT_ID": 66756, "ELEMENT_SET_NO": 999, "REV_AT_EPOCH": 385, "BSTAR": 0.00033804, "MEAN_MOTION_DOT": 6.799e-05, "MEAN_MOTION_DDOT": 0}, "tle": {"line1": "1 66756U 25276CU  25358.13814704  .00006799  00000+0  33804-3 0  9994", "line2": "2 66756  97.4413  69.7250 0001659 154.0488 206.0829 15.17956857  3857"}}, "geometry": {"type": "Point", "coordinates": [46.09770617505992, 72.16245414826071]}}]}